{"type":"Feature","properties":{"id":"alataw","source":"Natural Earth 10m geography_regions_polys"},"geometry":{"type":"Polygon","coordinates":[[[82.049,45.6722],[82.1528,45.6635],[82.2383,45.6774],[82.7134,45.9658],[82.8176,46.0037],[82.9194,46.0135],[83.0167,45.9858],[83.0758,45.9265],[83.184,45.6849],[83.2492,45.3877],[83.2546,45.2586],[83.2361,45.1641],[83.1892,45.1204],[81.8319,45.1935],[81.4789,45.1395],[81.4258,45.1135],[81.3717,45.0655],[81.2274,44.822],[81.0064,44.5757],[80.9763,44.5098],[80.9061,44.4373],[80.7756,44.3983],[79.8615,44.3673],[79.7549,44.3264],[79.5969,44.2285],[79.0842,44.0709],[78.8065,43.9351],[78.7709,43.9287],[78.733,43.9318],[78.5745,43.9771],[78.5369,43.9807],[78.0485,43.9398],[77.7367,43.9399],[77.707,43.9595],[77.6806,43.9997],[77.5859,44.2205],[77.5596,44.2547],[77.53,44.2661],[77.0276,44.2295],[76.9171,44.2464],[76.835,44.2869],[76.7925,44.3574],[76.8005,44.4645],[76.8587,44.5899],[76.9401,44.6707],[77.0379,44.7185],[77.3604,44.7813],[77.4544,44.8145],[78.1759,45.4764],[78.3123,45.5551],[78.7042,45.6473],[79.9075,45.7015],[80.0474,45.7659],[80.5213,46.1821],[80.6592,46.2646],[80.8212,46.314],[80.8905,46.3084],[80.9662,46.2751],[81.4297,45.9081],[81.814,45.7369],[82.049,45.6722]]]}}