{"type":"Feature","properties":{"id":"altun","source":"Natural Earth 10m geography_regions_polys"},"geometry":{"type":"Polygon","coordinates":[[[94.0514,38.8753],[94.0021,38.5451],[94.0033,38.4689],[94.0237,38.4033],[93.5419,38.4003],[93.4046,38.4377],[92.8079,38.7117],[92.625,38.7584],[91.2756,38.6701],[91.221,38.6444],[91.2102,38.609],[91.2369,38.5672],[91.2952,38.5219],[91.7398,38.3314],[91.7969,38.2863],[91.8438,38.2316],[91.8498,38.2209],[91.8803,38.1668],[91.906,38.0914],[91.9198,37.9565],[91.9248,37.9067],[91.9098,37.8237],[91.8711,37.7629],[91.8136,37.7216],[91.7416,37.6971],[91.6599,37.687],[91.1259,37.7452],[90.6187,37.7159],[90.4107,37.7471],[90.3602,37.7458],[90.309,37.7352],[90.0537,37.6299],[89.5134,37.5307],[89.4201,37.5136],[89.2188,37.5267],[89.0636,37.5368],[88.9791,37.5544],[88.9791,37.5897],[87.5874,37.5045],[86.869,37.6268],[86.6372,37.7255],[86.5076,37.8223],[86.4724,37.9229],[86.5115,38.0231],[86.605,38.1191],[86.8748,38.282],[87.1742,38.3855],[87.9127,38.6406],[89.2608,39.1064],[89.4722,39.1794],[89.9296,39.2149],[93.8374,39.5182],[93.8267,39.2905],[93.8374,39.2384],[93.8589,39.189],[94.0115,39.0008],[94.0425,38.9446],[94.0514,38.8753]]]}}