{"type":"Feature","properties":{"id":"borohoro","source":"Natural Earth 10m geography_regions_polys"},"geometry":{"type":"Polygon","coordinates":[[[85.6756,44.0607],[86.7713,43.6055],[86.8435,43.5432],[86.8892,43.4682],[86.8995,43.3776],[86.8495,43.2238],[86.7434,43.1073],[86.595,43.0244],[86.4183,42.971],[86.035,42.938],[85.7041,42.9777],[83.5795,43.5992],[83.3452,43.6677],[82.2373,43.739],[82.0797,43.7969],[81.9589,43.8868],[81.853,43.9398],[81.7957,43.9256],[81.7221,43.9301],[81.2429,44.1072],[81.1838,44.1683],[81.1524,44.2758],[81.1495,44.4128],[81.1768,44.5629],[81.2349,44.7094],[81.3255,44.8356],[81.4494,44.9248],[81.6079,44.9605],[82.1403,44.9022],[83.0243,44.5914],[83.6374,44.4981],[84.6697,44.341],[85.1923,44.2615],[85.6756,44.0607]]]}}