{"type":"Feature","properties":{"id":"dabie","source":"Natural Earth 10m geography_regions_polys"},"geometry":{"type":"Polygon","coordinates":[[[117.2014,31.2066],[117.1775,31.159],[116.0222,30.0788],[115.9612,30.0485],[115.8971,30.0316],[115.8323,30.03],[115.7688,30.0451],[115.7088,30.0789],[115.6542,30.1329],[115.6155,30.1955],[115.5496,30.4349],[115.5205,30.4874],[115.4727,30.535],[115.3989,30.5767],[115.1926,30.6545],[115.1492,30.6796],[115.1115,30.712],[115.0807,30.7542],[115.0584,30.8087],[115.047,30.8703],[115.0457,30.903],[115.0418,30.9146],[115.0317,30.9265],[114.9828,30.9605],[114.9319,30.9829],[114.5689,31.0236],[114.3969,31.0898],[113.8482,31.1196],[113.6091,31.1837],[113.4365,31.1783],[113.3805,31.1851],[113.2476,31.2388],[113.1166,31.325],[113.0017,31.4309],[112.9175,31.5439],[112.8612,31.6766],[112.8256,32.2857],[112.8391,32.363],[112.8655,32.429],[112.9078,32.4831],[112.9697,32.5253],[113.0547,32.5552],[113.3214,32.5844],[113.5447,32.5775],[113.5902,32.5665],[113.627,32.5507],[113.9321,32.3023],[114.0678,32.2315],[114.2033,32.1982],[115.127,32.1774],[115.6372,32.0908],[116.504,31.7368],[117.0974,31.3767],[117.1514,31.3325],[117.1875,31.291],[117.2044,31.2498],[117.2014,31.2066]]]}}