{"type":"Feature","properties":{"id":"dalou","source":"Natural Earth 10m geography_regions_polys"},"geometry":{"type":"Polygon","coordinates":[[[107.8446,29.242],[107.8859,29.2264],[107.9002,29.2293],[108.0366,29.3509],[108.0513,29.3557],[108.0801,29.3387],[108.1497,29.2415],[108.2742,28.9511],[108.3374,28.5832],[108.3334,28.5542],[108.3196,28.5086],[108.3059,28.4799],[108.2921,28.4628],[108.2483,28.4291],[108.2321,28.4063],[108.2146,28.3691],[108.1387,27.9169],[108.1085,27.8533],[108.074,27.8076],[107.9785,27.7336],[107.7575,27.6155],[107.4541,27.3809],[107.3906,27.3514],[107.3275,27.3367],[107.0004,27.3767],[106.6665,27.3417],[106.5953,27.315],[106.5668,27.2954],[106.5294,27.2697],[106.2523,26.9618],[106.127,26.8685],[106.0879,26.8149],[106.0756,26.7631],[106.0945,26.6154],[106.0846,26.5681],[106.0492,26.5213],[105.9636,26.4545],[105.8876,26.4144],[105.8186,26.3951],[105.4458,26.4088],[105.4058,26.4293],[105.3779,26.4628],[105.3135,26.5901],[105.2807,26.6238],[104.8912,26.7481],[104.8263,26.7515],[104.7879,26.7615],[104.7675,26.7771],[104.7455,26.8219],[104.7268,26.8494],[104.6912,26.8792],[104.5433,26.9545],[104.3955,27.0725],[104.006,27.6099],[103.9113,27.8132],[103.8522,28.0523],[103.8517,28.0965],[103.8622,28.1378],[103.8861,28.1785],[103.9262,28.2211],[104.1171,28.3699],[104.1751,28.4357],[104.2183,28.5204],[104.2369,28.5752],[104.2548,28.6091],[104.2815,28.6288],[104.282,28.6292],[104.3173,28.639],[104.5042,28.645],[104.6812,28.6837],[105.0924,28.681],[105.1912,28.6997],[105.2962,28.7454],[105.3435,28.7791],[105.4116,28.8276],[105.4569,28.8488],[105.5156,28.853],[105.7678,28.8144],[105.8052,28.8087],[105.8709,28.8101],[105.9257,28.8276],[106.1673,29.0234],[106.7131,29.4658],[106.9159,29.5372],[106.9598,29.5526],[106.9734,29.5547],[107.0988,29.5745],[107.2551,29.6393],[107.2814,29.6439],[107.3106,29.6409],[107.3447,29.6284],[107.3901,29.5983],[107.5592,29.3804],[107.6004,29.3492],[107.7435,29.2988],[107.8446,29.242]]]}}