{"type":"Feature","properties":{"id":"daxinganling","source":"Natural Earth 10m geography_regions_polys"},"geometry":{"type":"Polygon","coordinates":[[[119.3713,43.4437],[119.3445,43.2969],[117.9983,43.3054],[117.6473,43.2251],[117.5056,43.1706],[117.453,43.1627],[117.4142,43.1774],[117.3904,43.2224],[117.3828,43.3049],[117.9244,46.2813],[117.973,46.3829],[118.2107,46.668],[119.6611,49.5454],[119.6752,49.6016],[119.9092,50.5373],[120.0023,50.7319],[120.1239,51.5463],[120.1652,51.6303],[120.2687,51.7409],[120.3732,51.8129],[120.6558,51.9266],[120.7278,51.9738],[120.7828,52.0473],[120.8174,52.1601],[120.8218,52.2865],[120.7965,52.4027],[120.5425,52.8574],[120.5296,52.9287],[120.5541,52.9946],[120.6171,53.0541],[121.0971,53.2514],[122.1856,53.5147],[123.1235,53.5209],[124.0283,53.3887],[124.7507,53.1472],[124.9253,53.0322],[125.0486,52.8897],[125.1248,52.7249],[125.1592,52.5425],[125.1564,52.3481],[125.058,51.9425],[124.6106,51.1941],[124.4131,50.8638],[124.2515,50.5936],[123.5451,49.8489],[123.5222,49.7604],[123.5375,49.6877],[123.549,49.6332],[123.638,49.4337],[123.8993,49.1095],[123.9462,48.9381],[123.8707,48.7947],[123.0584,48.2748],[122.9061,48.1013],[122.8457,47.8874],[122.8672,47.777],[123.324,46.9545],[123.335,46.8432],[123.2673,46.5615],[123.1509,46.3354],[122.9076,46.0564],[122.778,45.9078],[122.2758,45.3318],[121.9234,44.9276],[121.4033,44.5383],[121.1513,44.3497],[119.5912,43.6426],[119.458,43.5559],[119.3713,43.4437]]]}}