{"type":"Feature","properties":{"id":"gobi","source":"Natural Earth 10m geography_regions_polys"},"geometry":{"type":"Polygon","coordinates":[[[117.5225,44.5087],[117.3408,44.0793],[117.301,43.9147],[117.2487,43.2228],[117.1919,43.0178],[117.1065,42.8372],[116.9901,42.6825],[116.841,42.5552],[116.657,42.4567],[116.4365,42.3886],[113.6953,42.3039],[113.0753,42.1469],[112.5039,41.863],[111.7032,41.2346],[111.6319,41.1786],[111.5476,41.1124],[111.4341,41.0606],[111.1348,40.9239],[110.6953,40.8581],[107.4191,41.3417],[107.3503,41.34],[107.2769,41.3381],[107.1648,41.2967],[107.0896,41.2045],[106.9989,40.8135],[106.8538,40.6473],[106.6478,40.5308],[105.9094,40.291],[105.7044,40.1846],[105.5606,40.0335],[105.4041,39.56],[105.3751,39.4722],[105.3313,39.3905],[105.2566,39.2921],[105.1416,39.1407],[104.8097,38.4802],[104.666,38.3203],[104.4567,38.1753],[104.2007,38.0499],[103.6595,37.8868],[103.6256,37.8766],[103.0942,37.8371],[102.5677,38.0969],[102.3749,38.1921],[102.2843,38.2105],[102.0144,38.2653],[101.5958,38.3503],[100.9969,38.4719],[100.9559,38.4802],[100.6515,38.686],[100.4454,38.873],[100.3688,38.9425],[99.9247,39.3456],[99.65,39.4929],[99.3693,39.5474],[99.2873,39.5634],[99.2459,39.5714],[99.103,39.6384],[98.9689,39.7012],[98.84,39.7617],[98.699,39.803],[98.1236,39.872],[96.8196,40.0283],[96.4504,40.0725],[96.4387,40.0739],[95.9276,40.1352],[95.6191,40.2449],[95.3638,40.3358],[95.1083,40.4928],[94.8817,40.6905],[94.693,40.9309],[94.5504,41.2158],[94.4866,41.4333],[94.462,41.6386],[94.4736,41.833],[94.5183,42.0172],[94.593,42.1925],[95.2786,43.0194],[95.3314,43.1179],[95.3623,43.2225],[95.3734,43.3416],[95.3399,43.9213],[95.3776,44.0863],[95.5055,44.6452],[96.2112,44.8569],[99.6951,44.4539],[99.9121,44.4744],[100.7514,44.5537],[102.2764,44.6979],[104.2852,45.33],[108.5291,45.4329],[109.1333,45.5998],[113.1992,47.673],[113.813,47.7858],[114.7411,47.7563],[115.7192,47.7253],[117.5798,47.3444],[117.6847,47.2038],[117.7211,46.9287],[117.5225,44.5087]]]}}