{"type":"Feature","properties":{"id":"hainan","source":"Natural Earth 10m geography_regions_polys"},"geometry":{"type":"Polygon","coordinates":[[[110.2172,20.0508],[110.2307,20.0496],[110.2445,20.0519],[110.3439,20.0388],[110.3923,19.9756],[110.388,20.018],[110.3936,20.0592],[110.4176,20.0547],[110.5882,19.9764],[110.5888,20.0725],[110.5983,20.0976],[110.6518,20.1377],[110.6785,20.1371],[110.7445,20.0595],[110.8091,20.0144],[110.8888,19.9919],[110.9383,19.9476],[110.9707,19.8833],[110.9977,19.7647],[111.0137,19.6555],[110.9127,19.5861],[110.8223,19.5579],[110.6409,19.2912],[110.6031,19.207],[110.5722,19.1719],[110.5625,19.1352],[110.566,19.0985],[110.5193,18.9702],[110.4776,18.8126],[110.4513,18.7479],[110.3995,18.6983],[110.3337,18.6733],[110.2908,18.6695],[110.2518,18.6558],[110.1563,18.5698],[110.0485,18.5052],[110.0664,18.4756],[110.0674,18.4476],[110.0202,18.4163],[109.9677,18.4221],[109.8156,18.3967],[109.7598,18.3483],[109.7027,18.2591],[109.6811,18.2471],[109.5896,18.2263],[109.5193,18.2183],[109.4001,18.2811],[109.3409,18.2996],[109.1832,18.3251],[109.0299,18.3678],[108.9223,18.4161],[108.7016,18.5353],[108.6761,18.7502],[108.6381,18.8663],[108.6356,18.9077],[108.65,19.265],[108.6655,19.3041],[108.6936,19.3383],[108.791,19.4182],[108.9028,19.4813],[109.0629,19.6136],[109.1791,19.6741],[109.2767,19.7611],[109.2195,19.7575],[109.1774,19.7685],[109.2189,19.8428],[109.2635,19.8827],[109.3148,19.9044],[109.4182,19.8888],[109.5137,19.9042],[109.5843,19.9703],[109.6514,19.9844],[109.9063,19.9627],[110.083,19.9929],[110.1716,20.0537],[110.2061,20.0556],[110.2172,20.0508]]]}}