{"type":"Feature","properties":{"id":"hexi-corridor","source":"Natural Earth 10m geography_regions_polys"},"geometry":{"type":"Polygon","coordinates":[[[100.0949,40.7768],[103.3812,38.6838],[103.5337,38.5172],[103.6729,38.293],[103.715,38.1724],[103.7271,38.0533],[103.6998,37.9408],[103.6595,37.8868],[103.6248,37.8402],[103.5327,37.7742],[103.4363,37.7357],[103.3379,37.7211],[103.2395,37.7266],[103.1437,37.7488],[102.968,37.8287],[102.5677,38.0969],[102.4692,38.1629],[102.1858,38.2871],[101.7443,38.3344],[101.5958,38.3503],[101.2144,38.3912],[101.0369,38.442],[100.9969,38.4719],[100.9956,38.4729],[100.3688,38.9425],[99.8411,39.338],[99.7111,39.3909],[99.4271,39.5065],[99.2873,39.5634],[99.103,39.6384],[98.9365,39.7062],[98.8536,39.7399],[98.1236,39.872],[97.7627,39.9373],[96.8549,40.0823],[96.4545,40.0726],[96.4504,40.0725],[96.2688,40.0681],[95.9006,40.0592],[95.7603,40.089],[95.6564,40.1383],[95.6547,40.1391],[95.6511,40.1408],[95.6194,40.1956],[95.6191,40.2449],[95.6189,40.2825],[95.8279,41.0654],[95.8782,41.1461],[95.9524,41.2047],[96.0437,41.2449],[99.0481,41.1856],[100.0949,40.7768]]]}}