{"type":"Feature","properties":{"id":"himalaya","source":"Natural Earth 10m geography_regions_polys"},"geometry":{"type":"Polygon","coordinates":[[[84.9081,29.1787],[87.3937,29.1336],[87.7173,29.2571],[88.0577,29.3204],[92.4732,29.103],[93.2017,28.907],[93.3657,28.8876],[93.5202,28.8979],[93.6194,28.927],[93.9031,29.1127],[94.3936,29.2435],[94.7768,29.4263],[94.9064,29.488],[95.1638,29.7282],[95.2141,29.757],[95.2706,29.7752],[95.3311,29.7821],[95.3933,29.7776],[95.4552,29.7611],[95.5147,29.7324],[95.5693,29.691],[95.6172,29.6365],[95.6426,29.5951],[95.6506,29.582],[95.6558,29.5643],[95.6626,29.541],[95.6557,29.5102],[95.6322,29.4863],[94.959,29.1942],[94.8952,29.1513],[94.8472,29.1041],[94.7964,29.0095],[94.7905,28.9216],[94.8207,28.8402],[94.8777,28.7651],[95.255,28.4752],[95.283,28.434],[95.2892,28.3975],[95.2745,28.3223],[95.2727,28.2757],[95.287,28.2177],[95.3103,28.1748],[95.3269,28.1443],[94.9087,27.8022],[94.3472,27.3429],[93.8301,27.1243],[91.6824,26.8598],[89.6455,26.9029],[89.59,26.9041],[89.3828,26.9538],[89.1976,27.0282],[88.9003,27.1475],[88.8007,27.1601],[88.6868,27.1495],[88.6529,27.137],[88.2512,26.9883],[87.7805,26.904],[87.0187,27.0266],[85.3369,27.2974],[84.6658,27.5731],[83.8593,27.7014],[83.7295,27.7468],[83.5014,27.8747],[83.2974,27.9518],[82.4868,28.0145],[82.398,28.049],[82.0001,28.3787],[79.3051,29.9588],[77.314,31.1263],[75.9491,32.2261],[75.7199,32.4108],[75.5824,32.6022],[75.5544,32.6812],[75.5219,32.7731],[75.531,32.9197],[75.5949,33.0491],[76.0916,33.5274],[76.2005,33.671],[76.2733,33.7431],[76.3818,33.7907],[77.0001,33.8661],[77.3756,33.9119],[77.4902,33.872],[78.0294,33.5228],[78.2244,33.3965],[84.5206,29.3185],[84.9081,29.1787]]]}}