{
  "type": "Feature",
  "properties": {
    "id": "junggar-basin"
  },
  "geometry": {
    "type": "Polygon",
    "coordinates": [
      [
        [
          88.505,
          45.2502
        ],
        [
          89.5757,
          44.418
        ],
        [
          89.6399,
          44.324
        ],
        [
          89.6438,
          44.2674
        ],
        [
          89.622,
          44.2232
        ],
        [
          89.5794,
          44.189
        ],
        [
          89.0195,
          44.0524
        ],
        [
          87.1746,
          44.1143
        ],
        [
          86.7654,
          44.2658
        ],
        [
          84.9928,
          44.4512
        ],
        [
          84.8622,
          44.3851
        ],
        [
          84.7319,
          44.3472
        ],
        [
          84.6697,
          44.341
        ],
        [
          84.6602,
          44.34
        ],
        [
          84.5879,
          44.3457
        ],
        [
          83.9336,
          44.3622
        ],
        [
          83.8165,
          44.3988
        ],
        [
          83.6374,
          44.4981
        ],
        [
          83.3031,
          44.6833
        ],
        [
          83.2678,
          44.7163
        ],
        [
          83.2378,
          44.7535
        ],
        [
          83.2142,
          44.7956
        ],
        [
          83.1985,
          44.8432
        ],
        [
          83.1946,
          44.9626
        ],
        [
          83.2426,
          45.0291
        ],
        [
          83.3296,
          45.0562
        ],
        [
          83.8108,
          45.0372
        ],
        [
          83.8999,
          45.0674
        ],
        [
          83.9224,
          45.0863
        ],
        [
          84.0537,
          45.2716
        ],
        [
          84.1985,
          45.4062
        ],
        [
          84.282,
          45.4503
        ],
        [
          85.8991,
          45.8503
        ],
        [
          87.6835,
          45.7712
        ],
        [
          88.2015,
          45.5363
        ],
        [
          88.3619,
          45.4094
        ],
        [
          88.505,
          45.2502
        ]
      ]
    ],
    "totalPoints": 37,
    "numParts": 1
  }
}