{"type":"Feature","properties":{"id":"karakoram","source":"Natural Earth 10m geography_regions_polys"},"geometry":{"type":"Polygon","coordinates":[[[79.018,33.354],[78.8969,33.3357],[78.3745,33.3543],[78.2387,33.3891],[78.2244,33.3965],[78.1102,33.4559],[78.0294,33.5228],[77.0758,34.3124],[76.3865,34.7044],[76.267,34.8179],[76.1051,35.0591],[75.7482,35.8102],[75.7073,35.9427],[75.69,36.3015],[75.6581,36.4063],[75.6102,36.4875],[75.4837,36.6306],[75.2518,36.893],[75.199,36.952],[75.1723,36.9925],[75.1697,36.9998],[75.1626,37.0203],[75.1592,37.0612],[75.1476,37.086],[74.9282,37.2846],[74.9197,37.3093],[74.9292,37.3347],[74.9607,37.3614],[75.986,37.7884],[76.2477,37.8973],[76.3574,37.9135],[76.4445,37.9064],[76.4543,37.8999],[76.4998,37.8701],[76.6107,37.7404],[76.9727,37.4824],[77.8091,36.4843],[77.8611,36.4495],[77.9998,36.3876],[78.2615,36.1912],[78.3511,36.124],[78.4808,36.0726],[78.8123,35.996],[78.9718,35.9162],[79.0115,35.8964],[79.2744,35.6686],[79.4833,35.3779],[79.6209,35.059],[79.7003,34.5971],[79.8449,34.3576],[79.856,34.3135],[79.8558,34.2651],[79.8417,34.2114],[79.8248,34.1777],[79.5029,33.8289],[79.245,33.6515],[79.2265,33.631],[79.1961,33.5772],[79.1487,33.4542],[79.1333,33.4276],[79.1143,33.4052],[79.0706,33.3746],[79.018,33.354]]]}}