{"type":"Feature","properties":{"id":"leizhou","source":"Natural Earth 10m geography_regions_polys"},"geometry":{"type":"Polygon","coordinates":[[[109.7006,21.1553],[109.7602,21.2284],[109.7689,21.2773],[109.7717,21.2803],[109.777,21.2955],[109.7759,21.3135],[109.7755,21.3145],[109.7796,21.3375],[109.8206,21.3488],[109.9043,21.356],[109.906,21.3723],[109.9211,21.3765],[109.9267,21.4369],[109.9375,21.4519],[109.9807,21.4728],[110.0348,21.4805],[110.2627,21.4501],[110.3106,21.4344],[110.3524,21.4066],[110.3865,21.3678],[110.4084,21.3214],[110.3975,21.2477],[110.3956,21.2417],[110.3551,21.1885],[110.2124,21.0505],[110.1936,21.0376],[110.1797,21.0051],[110.1791,21.0041],[110.1788,21.0029],[110.154,20.9446],[110.1804,20.8586],[110.3519,20.8391],[110.3689,20.8242],[110.3772,20.8136],[110.3885,20.7905],[110.3705,20.7521],[110.3262,20.7199],[110.3131,20.6717],[110.5115,20.5183],[110.5176,20.46],[110.4869,20.4269],[110.4495,20.3554],[110.3447,20.2948],[110.1231,20.2637],[109.9385,20.2951],[109.8825,20.3641],[109.8858,20.4131],[109.9316,20.3989],[109.9839,20.4033],[109.9684,20.4481],[109.9464,20.4744],[109.861,20.5143],[109.792,20.6219],[109.8053,20.7115],[109.7674,20.7807],[109.7263,20.8388],[109.6848,20.8736],[109.6626,20.9169],[109.7045,21.0527],[109.6991,21.0709],[109.7006,21.1553]]]}}