{"type":"Feature","properties":{"id":"liaodong-hills","source":"Natural Earth 10m geography_regions_polys"},"geometry":{"type":"Polygon","coordinates":[[[122.9553,39.619],[122.84,39.6008],[122.2205,39.314],[122.1609,39.2587],[122.1209,39.1519],[121.9823,39.0532],[121.8644,38.9965],[121.6772,39.0034],[121.6328,38.9548],[121.6704,38.8918],[121.6499,38.8651],[121.3201,38.8082],[121.1636,38.7316],[121.1217,38.8133],[121.1067,38.9208],[121.6787,39.0815],[121.6276,39.2202],[121.8185,39.3865],[121.518,39.3754],[121.4317,39.4674],[121.2886,39.5081],[121.2675,39.5447],[121.3738,39.6033],[121.4531,39.6049],[121.4395,39.6311],[121.5176,39.639],[121.4742,39.7549],[121.5158,39.8414],[121.6423,39.8642],[121.801,39.9505],[122.1909,40.3583],[122.3473,40.6049],[122.9107,41.0892],[123.1616,41.2074],[123.5798,41.2006],[123.7387,41.0954],[123.877,40.9084],[123.9381,40.7611],[123.9282,40.5047],[124.1605,40.2749],[124.2888,40.095],[124.2971,40.0123],[124.2541,39.9173],[124.1058,39.841],[123.7477,39.8292],[123.6509,39.8816],[123.5807,39.7861],[123.3069,39.7544],[123.2266,39.6866],[123.0322,39.6735],[122.9553,39.619]]]}}