{"type":"Feature","properties":{"id":"loess","source":"Natural Earth 10m geography_regions_polys"},"geometry":{"type":"Polygon","coordinates":[[[104.256,37.772],[107.1605,37.456],[107.4152,37.4815],[107.5393,37.5193],[107.5679,37.528],[107.5728,37.5282],[109.2884,37.5889],[109.6354,37.6012],[109.7155,37.5862],[109.8634,37.5241],[110.2025,37.2474],[110.3064,37.1626],[110.4437,36.9871],[110.5929,36.6926],[110.6458,36.6228],[110.6876,36.5865],[110.9551,36.4632],[111.0999,36.3352],[111.2345,36.1674],[111.2612,36.1098],[111.2644,36.0948],[111.2728,36.054],[111.27,35.9976],[111.2682,35.9912],[111.2533,35.9381],[111.1476,35.7338],[111.1372,35.6784],[111.1443,35.6299],[111.2516,35.4351],[111.2743,35.369],[111.2815,35.2868],[111.2625,35.217],[111.2227,35.158],[111.167,35.1081],[110.3445,34.6849],[110.1372,34.6455],[109.2007,34.6888],[108.7348,34.6352],[108.4352,34.5635],[107.3064,34.6276],[106.2371,34.8841],[105.5192,34.9009],[105.4109,34.9359],[105.3159,34.9881],[104.819,35.4006],[104.7554,35.4257],[104.3545,35.4616],[104.29,35.48],[104.1414,35.5611],[104.004,35.6784],[103.8867,35.816],[103.8439,35.8841],[103.7974,35.9581],[103.6921,36.2319],[103.6489,36.664],[103.6018,37.1351],[103.6253,37.3255],[103.6921,37.4797],[103.7954,37.5997],[103.9284,37.6871],[104.0842,37.744],[104.256,37.772]]]}}