{"type":"Feature","properties":{"id":"luliang","source":"Natural Earth 10m geography_regions_polys"},"geometry":{"type":"Polygon","coordinates":[[[112.5183,34.7836],[112.2166,34.7176],[112.121,34.7343],[111.9168,34.8322],[111.8472,34.8464],[111.804,34.8469],[111.7642,34.8601],[111.6669,34.869],[111.5773,34.9129],[111.4967,34.9842],[111.3681,35.1771],[111.2908,35.3848],[111.2682,35.9912],[111.2644,36.0948],[111.2173,37.3592],[111.2984,37.7401],[111.2987,37.8774],[111.1449,38.3772],[111.1365,38.4858],[111.1654,38.7022],[111.5537,39.8791],[111.5803,40.084],[111.5685,40.3644],[111.5881,40.4499],[111.6267,40.5209],[111.6709,40.5711],[111.9329,40.7562],[112.1417,40.9656],[112.1963,41.0039],[112.2113,41.0111],[112.3331,40.7195],[112.5928,39.3676],[112.7017,39.1437],[112.7327,39.0168],[112.8286,37.7648],[112.9597,37.3338],[113.0339,35.5058],[112.9848,35.1724],[112.9158,34.9516],[112.889,34.9073],[112.8573,34.8731],[112.8239,34.8516],[112.8212,34.8499],[112.5183,34.7836]]]}}