{"type":"Feature","properties":{"id":"muus","source":"Natural Earth 10m geography_regions_polys"},"geometry":{"type":"Polygon","coordinates":[[[107.9628,40.9153],[110.7774,40.3426],[111.0454,40.1925],[111.1994,40.0607],[111.2308,40.017],[111.2529,39.9714],[111.2666,39.9238],[111.2723,39.8741],[111.2631,39.7687],[111.1395,39.3323],[111.104,39.269],[111.0574,39.2104],[110.9397,39.1073],[110.8402,38.9816],[110.7637,38.8319],[110.7128,38.6711],[110.6882,38.4696],[110.7839,37.9838],[110.7838,37.8767],[110.7727,37.8215],[110.7487,37.7688],[110.2599,37.2572],[110.2329,37.2451],[110.2025,37.2474],[110.1947,37.248],[110.1489,37.2654],[109.8655,37.457],[109.6543,37.5477],[109.2884,37.5889],[108.572,37.6696],[107.9132,37.6193],[107.5728,37.5282],[107.5396,37.5193],[107.5393,37.5193],[107.3015,37.5615],[107.2927,37.5588],[107.2241,37.5234],[105.6555,37.6263],[105.4811,37.6673],[105.4108,37.7004],[105.3594,37.7443],[105.3339,37.7872],[105.3178,37.8382],[105.2844,38.1856],[105.1365,38.7911],[105.1433,38.9298],[105.2266,39.2376],[105.2566,39.2921],[105.4041,39.56],[105.5586,39.8404],[105.7863,40.1107],[105.9992,40.2899],[106.0985,40.3377],[106.6875,40.4705],[106.7278,40.4727],[106.7593,40.4601],[106.7852,40.4376],[106.8309,40.3818],[106.8569,40.3583],[106.8887,40.3439],[106.9292,40.3435],[106.9756,40.3587],[107.74,40.8867],[107.8025,40.9061],[107.9628,40.9153]]]}}