{"type":"Feature","properties":{"id":"nanling","source":"Natural Earth 10m geography_regions_polys"},"geometry":{"type":"Polygon","coordinates":[[[113.0889,23.6528],[112.8591,23.604],[112.3023,23.2956],[112.1831,23.2626],[111.859,23.2629],[111.7144,23.2899],[111.572,23.3581],[111.323,23.5434],[111.1968,23.6048],[111.1294,23.6234],[111.0585,23.6318],[110.9837,23.6285],[110.7853,23.7211],[110.0068,23.853],[109.976,23.8684],[109.9348,23.8986],[109.8993,23.935],[109.8445,24.0217],[109.8097,24.118],[109.7931,24.2133],[109.8003,24.3873],[109.7959,24.4137],[109.7869,24.4362],[109.7622,24.4669],[109.7313,24.4886],[109.5471,24.5416],[109.5176,24.5572],[109.4578,24.6171],[109.4279,24.6873],[109.4227,24.764],[109.4381,24.8433],[109.4692,24.9215],[109.5604,25.0592],[109.6904,25.185],[109.7046,25.2049],[109.7151,25.2274],[109.7492,25.3721],[109.8215,25.5504],[109.8267,25.5833],[109.8239,25.6137],[110.1116,25.8156],[110.2124,25.8549],[110.3063,25.8695],[111.5565,25.869],[111.6614,25.8467],[111.7588,25.8021],[111.928,25.6481],[111.9618,25.6277],[112.0405,25.6018],[113.514,25.3956],[113.7568,25.3192],[113.9093,25.2427],[113.992,25.1793],[114.0641,25.0997],[114.0916,25.0554],[114.1109,25.0091],[114.1199,24.9614],[114.1187,24.9067],[114.1069,24.8677],[114.0862,24.8408],[114.0577,24.8225],[113.8971,24.7669],[113.8228,24.7142],[113.7723,24.6459],[113.663,24.3014],[113.6228,24.2189],[113.5629,24.1464],[113.3754,23.9998],[113.322,23.939],[113.1919,23.726],[113.1616,23.6963],[113.1249,23.6702],[113.0889,23.6528]]]}}