{"type":"Feature","properties":{"id":"northeast","source":"Natural Earth 10m geography_regions_polys"},"geometry":{"type":"Polygon","coordinates":[[[125.1287,43.3255],[125.0877,43.3189],[125.0588,43.3216],[125.0383,43.3311],[124.9837,43.3743],[124.954,43.3847],[124.9114,43.3889],[124.801,43.3817],[124.7006,43.3595],[124.6082,43.3236],[124.4432,43.2136],[123.7682,42.3525],[123.6895,42.1747],[123.6665,42.0095],[123.6709,41.6827],[123.6581,41.5929],[123.6323,41.5119],[123.5939,41.4481],[123.5447,41.3992],[123.4862,41.3628],[123.0186,41.2512],[122.9524,41.2189],[122.8958,41.1782],[122.542,40.7907],[122.377,40.7205],[122.1961,40.7011],[122.0886,40.7165],[121.8588,40.8421],[121.8349,40.9743],[121.8086,40.9685],[121.7656,40.8759],[121.7429,40.8573],[121.6815,40.8983],[121.5604,41.0328],[121.4848,41.1937],[121.4805,41.3051],[121.5187,41.4248],[121.9481,41.9831],[122.1101,42.2963],[122.1043,42.4067],[122.0746,42.4857],[122.0254,42.5418],[121.7185,42.7026],[121.4547,42.9132],[121.3312,42.9749],[121.0101,43.0621],[119.7291,43.1262],[119.6159,43.1579],[119.5302,43.2026],[119.4837,43.2633],[119.4891,43.4009],[119.5808,43.5355],[119.7349,43.6627],[120.4998,44.0129],[120.8875,44.1106],[120.9893,44.1618],[121.4033,44.5383],[122.2758,45.3318],[122.6343,45.6578],[122.6902,45.7311],[122.778,45.9078],[122.8123,45.9766],[122.9076,46.0564],[123.1708,46.2765],[123.4244,46.6738],[123.4575,46.7601],[123.4707,46.8435],[123.4662,46.9245],[123.4462,47.0034],[123.3689,47.1563],[123.1611,47.4349],[123.1305,47.4984],[123.1156,47.562],[123.1198,47.6268],[123.1464,47.6938],[123.1987,47.7638],[123.3333,47.8765],[123.6713,48.0819],[124.2258,48.6473],[124.6366,48.8939],[125.0884,49.0315],[125.5678,49.0637],[126.4573,48.9393],[126.8815,48.8107],[127.0685,48.7141],[127.2282,48.5895],[127.8375,47.7067],[127.8917,47.5483],[127.9043,47.3903],[127.8633,47.2346],[127.332,46.3167],[127.2927,46.1581],[127.2935,46.003],[127.367,45.682],[127.3621,45.6262],[127.345,45.569],[126.8059,44.8616],[126.5913,44.2591],[126.5635,43.9992],[126.5473,43.9526],[126.5169,43.906],[126.4144,43.8195],[126.0479,43.6348],[125.5523,43.5254],[125.1287,43.3255]]]}}