{"type":"Feature","properties":{"id":"north-china","source":"Natural Earth 10m geography_regions_polys"},"geometry":{"type":"Polygon","coordinates":[[[117.625,39.4061],[117.5274,38.905],[117.5578,38.6251],[117.6224,38.4131],[117.9452,38.2009],[118.033,38.1731],[118.5354,38.0962],[118.5341,38.0599],[118.8,38.1267],[118.9467,38.0201],[119.0275,37.904],[119.0385,37.7765],[119.0735,37.7404],[118.9417,37.549],[118.9185,37.4381],[118.9923,37.1664],[119.1442,34.9213],[119.201,34.7484],[119.3204,34.7492],[119.5829,34.5822],[120.1226,34.3591],[120.2715,34.2403],[120.5048,33.6382],[120.8682,33.0212],[120.881,32.814],[120.8532,32.6614],[120.9899,32.567],[121.3417,32.425],[121.3973,32.348],[121.4039,32.2063],[121.4508,32.1533],[121.6742,32.051],[121.7745,31.9661],[121.8589,31.7033],[121.6809,31.7122],[121.352,31.8588],[121.1458,31.8423],[120.9735,31.8694],[120.7917,32.0317],[120.5201,32.1059],[120.1841,31.9662],[120.0987,31.976],[120.0359,31.9363],[120.1916,31.9063],[120.4972,32.0198],[120.7155,31.9837],[120.7878,31.8198],[121.0554,31.7194],[121.2049,31.6281],[121.351,31.4854],[121.6606,31.3197],[121.7623,31.1924],[121.8108,30.8882],[121.3963,30.7913],[121.31,30.6997],[120.9977,30.5583],[120.8267,30.3573],[120.4498,30.3878],[120.2332,30.2734],[120.1445,30.2999],[120.0767,30.4349],[120.0906,30.6729],[120.0256,30.8156],[119.9319,30.8719],[119.38,31.0444],[117.9794,30.9537],[117.7437,30.8483],[117.6445,30.8515],[116.8573,31.6428],[116.6162,31.8184],[116.5364,31.8561],[116.0862,31.925],[115.7819,32.1157],[115.0333,32.2944],[114.6384,32.5163],[114.4766,32.6581],[113.5424,33.934],[113.0964,34.9646],[113.0932,35.0559],[113.179,35.1306],[114.0704,35.4298],[114.1657,35.5095],[114.5186,36.3911],[114.5205,36.549],[114.3897,36.837],[114.4456,37.2712],[114.359,38.5526],[114.396,38.8538],[114.4536,38.9981],[114.6088,39.1723],[114.6502,39.5142],[114.7046,39.6393],[114.8775,39.7064],[115.0524,39.7053],[115.6738,39.5002],[115.7976,39.5203],[115.8914,39.608],[116.1456,40.06],[116.3124,40.236],[116.513,40.3361],[116.6237,40.3414],[116.7759,40.277],[117.1824,39.8731],[117.5488,39.6502],[117.622,39.5084],[117.625,39.4061]]]}}