{"type":"Feature","properties":{"id":"pamir","source":"Natural Earth 10m geography_regions_polys"},"geometry":{"type":"Polygon","coordinates":[[[74.9039,39.4652],[75.6734,39.1955],[75.8963,39.0313],[76.1218,38.81],[76.8676,38.3469],[76.9885,38.2387],[77.0322,38.1382],[76.9727,38.0478],[76.9116,38.0201],[76.8595,37.9965],[76.4543,37.8999],[75.986,37.7884],[75.6741,37.7141],[75.5017,37.6032],[75.1104,37.574],[74.3554,37.5176],[73.0986,37.4238],[72.9179,37.4103],[72.7942,37.3637],[72.4859,37.2475],[72.107,37.1048],[72.0866,37.0971],[71.933,37.0831],[71.785,37.1052],[71.6622,37.1673],[71.6495,37.1737],[71.5253,37.2527],[71.4461,37.2845],[71.4241,37.3049],[71.3198,37.449],[71.2598,37.5064],[71.2346,37.5386],[71.2156,37.5825],[71.2048,37.645],[71.2268,39.0659],[71.2521,39.1662],[71.2887,39.2263],[71.3263,39.2592],[71.3662,39.272],[71.577,39.2619],[71.8967,39.3677],[71.9181,39.3816],[72.2439,39.5056],[74.2396,39.5599],[74.9039,39.4652]]]}}