{"type":"Feature","properties":{"id":"qaidam","source":"Natural Earth 10m geography_regions_polys"},"geometry":{"type":"Polygon","coordinates":[[[98.1188,36.4901],[98.153,36.4188],[98.1705,36.3404],[98.1729,36.2544],[98.138,36.0581],[98.1378,36.057],[98.0181,36.0204],[97.9849,36.0103],[97.9758,36.0075],[97.8005,35.9877],[97.7879,35.9888],[97.4277,36.0177],[96.1589,36.3707],[95.9273,36.3967],[95.6511,36.4277],[95.4261,36.3711],[95.1459,36.3005],[95.1356,36.2979],[95.1025,36.2952],[94.9949,36.3229],[94.8971,36.348],[94.663,36.372],[94.4649,36.3923],[94.1867,36.4425],[92.8597,36.6819],[92.7896,36.6945],[92.7091,36.7461],[91.9952,37.2038],[91.9421,37.252],[91.8955,37.3119],[91.8728,37.3524],[91.8692,37.3809],[91.8794,37.4047],[91.9227,37.4686],[91.9459,37.5234],[91.984,37.7499],[91.9756,37.8059],[91.9198,37.9565],[91.8401,38.1713],[91.8498,38.2209],[91.8705,38.3262],[91.9913,38.4222],[92.1776,38.4699],[92.647,38.4622],[94.2584,38.0039],[94.8584,37.5392],[95.0759,37.4217],[97.8392,36.6937],[97.9944,36.6139],[98.0664,36.5549],[98.1188,36.4901]]]}}