{"type":"Feature","properties":{"id":"qinghai-tibet","source":"Natural Earth 10m geography_regions_polys"},"geometry":{"type":"Polygon","coordinates":[[[103.6489,36.664],[103.7521,36.2443],[103.8439,35.8841],[103.9905,35.3093],[103.9491,34.3624],[104.1122,33.1089],[104.0431,31.8634],[103.8836,31.376],[103.8604,31.3381],[103.4243,30.9791],[103.0819,30.4409],[103.226,30.0619],[103.1213,29.6996],[102.9097,29.3311],[102.5128,28.942],[102.2238,28.8277],[101.9649,28.7252],[101.953,28.7234],[101.4778,28.6508],[99.3635,27.6663],[99.1764,27.5849],[98.9388,27.4816],[98.7559,27.402],[96.2835,27.9557],[95.6544,28.2843],[95.5455,28.3411],[95.3103,28.1748],[95.3103,28.1748],[95.3269,28.1443],[94.9087,27.8022],[94.3472,27.3429],[93.8301,27.1243],[91.6824,26.8598],[89.6455,26.9029],[89.59,26.9041],[89.5442,26.915],[89.1956,26.9239],[88.9857,27.0381],[88.8351,27.1199],[88.6529,27.137],[88.6528,27.137],[88.2512,26.9883],[87.7805,26.904],[87.4592,26.9557],[87.0188,27.0266],[85.3369,27.2974],[84.6658,27.5731],[83.8593,27.7014],[83.7295,27.7468],[83.5014,27.8747],[83.2974,27.9518],[82.4868,28.0145],[82.398,28.049],[82.0001,28.3787],[79.3051,29.9588],[77.314,31.1263],[75.9491,32.2261],[75.9491,32.2261],[75.921,32.1893],[74.9668,32.8718],[74.7128,33.0749],[74.5214,33.2281],[74.0759,33.5845],[73.5057,34.1262],[73.4857,34.1452],[73.4819,34.1487],[73.0365,34.4457],[73.4225,35.9899],[74.6104,37.4154],[74.7491,37.4594],[75.1104,37.574],[76.0825,37.8824],[76.9116,38.0201],[77.0184,38.0378],[78.7249,37.2218],[79.7493,37.0215],[80.5231,36.6299],[80.6316,36.575],[80.6738,36.5612],[80.8428,36.5058],[81.1403,36.4083],[81.1625,36.4143],[82.135,36.6799],[83.3261,36.7967],[83.4022,36.8169],[83.6707,36.888],[85.2001,37.2934],[85.7083,37.5953],[87.0383,38.3855],[87.1742,38.3855],[87.5624,38.3855],[87.9127,38.6406],[88.3491,38.9584],[89.2608,39.1064],[89.9296,39.2149],[95.6351,40.1407],[95.6547,40.1391],[96.4387,40.0739],[96.4545,40.0726],[96.6168,40.0591],[96.8196,40.0283],[97.4359,39.9345],[98.5301,39.768],[98.9365,39.7062],[98.9689,39.7012],[99.051,39.6887],[99.3693,39.5474],[99.5274,39.4772],[99.6972,39.4018],[99.8411,39.338],[100.4454,38.873],[100.9559,38.4802],[100.9956,38.4729],[101.7443,38.3344],[102.2383,38.243],[102.2843,38.2105],[102.5972,37.9894],[102.8645,37.7086],[103.1286,37.4312],[103.5753,36.9635],[103.6489,36.664]]]}}