{"type":"Feature","properties":{"id":"qinling","source":"Natural Earth 10m geography_regions_polys"},"geometry":{"type":"Polygon","coordinates":[[[112.9923,34.7277],[113.391,34.1169],[113.411,34.0459],[113.3921,34.0107],[113.3335,33.9815],[113.3074,33.9454],[113.3068,33.904],[113.3259,33.8583],[113.5978,33.4838],[114.1687,32.9418],[114.1934,32.8958],[114.2046,32.854],[114.2031,32.815],[114.1897,32.777],[113.9888,32.551],[113.9634,32.533],[113.9369,32.525],[113.9066,32.5284],[113.87,32.5445],[112.7643,33.513],[112.5807,33.605],[112.525,33.6185],[112.4144,33.6158],[112.415,33.554],[112.4335,33.4966],[112.4854,33.3943],[112.499,33.3494],[112.4916,33.3085],[112.4529,33.2716],[112.3734,33.2385],[112.2969,33.2213],[112.2277,33.2164],[112.1635,33.2219],[111.8587,33.335],[111.8594,33.2866],[111.8728,33.2452],[111.9392,33.139],[111.9541,33.1013],[111.9573,33.0584],[111.9437,33.0078],[111.9334,32.989],[111.8389,32.9024],[111.8267,32.8861],[111.8118,32.8499],[111.792,32.7725],[111.7852,32.7564],[111.7761,32.7428],[111.6854,32.6816],[111.5678,32.6623],[110.7744,32.8492],[110.4878,32.8146],[109.9353,32.6532],[109.7931,32.6342],[108.9313,32.7005],[108.8406,32.7302],[108.5759,32.8889],[107.5982,33.2718],[105.8886,33.1979],[105.5918,33.2336],[105.4633,33.2804],[105.356,33.353],[105.2429,33.4821],[105.1467,33.6392],[105.0742,33.809],[105.0324,33.9761],[105.0276,34.0355],[105.0316,34.0873],[105.0437,34.1336],[105.0879,34.2156],[105.2918,34.4408],[105.4025,34.5195],[105.5198,34.5772],[105.7713,34.6422],[106.2557,34.6588],[106.8472,34.5556],[107.349,34.5393],[107.8482,34.3579],[109.2136,34.3474],[111.14,34.8007],[111.407,34.7915],[112.0755,34.6724],[112.2228,34.6793],[112.5183,34.7836],[112.708,34.8506],[112.8086,34.8575],[112.8239,34.8516],[112.9031,34.8213],[112.9923,34.7277]]]}}