{"type":"Feature","properties":{"id":"shandong-hills","source":"Natural Earth 10m geography_regions_polys"},"geometry":{"type":"Polygon","coordinates":[[[119.1848,35.1075],[119.0216,37.1527],[119.0425,37.2457],[119.2874,37.1383],[119.7605,37.1551],[119.8875,37.2534],[119.9081,37.3641],[120.1559,37.495],[120.3115,37.6227],[120.2691,37.67],[120.2964,37.6933],[120.75,37.8339],[121.0226,37.7348],[121.1062,37.6566],[121.1272,37.59],[121.1956,37.6177],[121.3881,37.579],[121.6414,37.4488],[121.9452,37.4411],[122.0566,37.5289],[122.1096,37.5223],[122.1691,37.4562],[122.3377,37.4053],[122.6023,37.4264],[122.667,37.4028],[122.5733,37.3179],[122.5873,37.1811],[122.4467,37.0681],[122.5234,37.0026],[122.5197,36.9468],[122.3409,36.8322],[122.2423,36.8499],[122.1624,36.9586],[121.9327,36.9595],[121.0538,36.6114],[120.8026,36.6366],[120.7214,36.609],[120.7398,36.5803],[120.8368,36.5753],[120.905,36.4853],[120.8958,36.4441],[120.8471,36.4261],[120.7762,36.4563],[120.6834,36.3812],[120.6692,36.1579],[120.3931,36.0539],[120.3303,36.1101],[120.3277,36.2282],[120.1833,36.2024],[120.0941,36.1189],[120.1102,36.067],[120.2597,35.9656],[120.0547,35.8611],[119.9787,35.7402],[119.8662,35.6437],[119.7197,35.5887],[119.4861,35.3962],[119.3528,35.1138],[119.2212,35.0233],[119.1848,35.1075]]]}}