{
  "type": "Feature",
  "properties": {
    "id": "taihang"
  },
  "geometry": {
    "type": "Polygon",
    "coordinates": [
      [
        [
          113.8632,
          35.4773
        ],
        [
          113.2509,
          35.3562
        ],
        [
          113.1549,
          35.3598
        ],
        [
          113.0951,
          35.3883
        ],
        [
          113.0656,
          35.4383
        ],
        [
          113.0597,
          35.507
        ],
        [
          113.1705,
          36.0715
        ],
        [
          113.0967,
          36.7583
        ],
        [
          112.9885,
          37.0748
        ],
        [
          112.9656,
          37.2149
        ],
        [
          112.9795,
          37.325
        ],
        [
          113.0587,
          37.5895
        ],
        [
          113.0635,
          37.6617
        ],
        [
          113.0534,
          37.725
        ],
        [
          112.9097,
          37.9998
        ],
        [
          112.8893,
          38.0649
        ],
        [
          112.8762,
          38.2091
        ],
        [
          112.8988,
          38.3352
        ],
        [
          112.9484,
          38.4482
        ],
        [
          113.2427,
          38.8654
        ],
        [
          113.2971,
          38.985
        ],
        [
          113.3253,
          39.1168
        ],
        [
          113.3405,
          40.9573
        ],
        [
          113.2589,
          41.2234
        ],
        [
          113.2589,
          41.2744
        ],
        [
          113.2732,
          41.3236
        ],
        [
          113.3037,
          41.3723
        ],
        [
          113.3423,
          41.4092
        ],
        [
          113.3872,
          41.4361
        ],
        [
          113.489,
          41.4666
        ],
        [
          113.7026,
          41.4876
        ],
        [
          113.7509,
          41.504
        ],
        [
          113.9609,
          41.634
        ],
        [
          114.0137,
          41.653
        ],
        [
          114.0811,
          41.6656
        ],
        [
          114.2236,
          41.6623
        ],
        [
          114.5032,
          41.5818
        ],
        [
          114.6377,
          41.5161
        ],
        [
          114.7576,
          41.4234
        ],
        [
          114.8042,
          41.3687
        ],
        [
          114.8417,
          41.3082
        ],
        [
          114.8699,
          41.2416
        ],
        [
          114.8975,
          41.0894
        ],
        [
          114.8933,
          40.9796
        ],
        [
          114.84,
          40.7861
        ],
        [
          114.6611,
          40.4299
        ],
        [
          114.6091,
          40.266
        ],
        [
          114.6034,
          40.1196
        ],
        [
          114.6865,
          39.7282
        ],
        [
          114.6845,
          39.7097
        ],
        [
          114.6753,
          39.7006
        ],
        [
          114.6484,
          39.6918
        ],
        [
          114.6375,
          39.683
        ],
        [
          114.6328,
          39.6651
        ],
        [
          114.6411,
          39.5924
        ],
        [
          114.6337,
          39.553
        ],
        [
          114.5584,
          39.4002
        ],
        [
          114.5457,
          39.3599
        ],
        [
          114.5427,
          39.1938
        ],
        [
          114.5359,
          39.1574
        ],
        [
          114.4358,
          38.9706
        ],
        [
          114.3939,
          38.8368
        ],
        [
          114.4026,
          37.908
        ],
        [
          114.4107,
          37.0272
        ],
        [
          114.4133,
          36.7571
        ],
        [
          114.4181,
          36.2348
        ],
        [
          114.3916,
          36.1378
        ],
        [
          114.3469,
          36.0389
        ],
        [
          114.0,
          35.5739
        ],
        [
          113.9329,
          35.517
        ],
        [
          113.8632,
          35.4773
        ]
      ]
    ],
    "totalPoints": 71,
    "numParts": 1
  }
}