{"type":"Feature","properties":{"id":"taiwan","source":"Natural Earth 10m geography_regions_polys"},"geometry":{"type":"Polygon","coordinates":[[[121.6495,25.1982],[121.8528,25.1044],[121.929,24.9737],[121.8145,24.8329],[121.828,24.5344],[121.737,24.2853],[121.6072,24.078],[121.4769,23.4231],[121.366,23.0994],[121.1612,22.7764],[121.0209,22.6491],[120.8864,22.3671],[120.8398,21.925],[120.7369,21.9646],[120.6901,22.0331],[120.6968,22.1144],[120.5696,22.3751],[120.3321,22.5336],[120.2491,22.6811],[120.1459,22.9841],[120.166,23.0329],[120.1315,23.0153],[120.0725,23.1498],[120.1487,23.3235],[120.1321,23.6529],[120.6094,24.4454],[120.7826,24.668],[120.8264,24.6673],[121.0406,25.0328],[121.3786,25.1592],[121.4431,25.1376],[121.3988,25.1934],[121.5171,25.2769],[121.5937,25.2753],[121.6495,25.1982]]]}}