{"type":"Feature","properties":{"id":"taklamakan","source":"Natural Earth 10m geography_regions_polys"},"geometry":{"type":"Polygon","coordinates":[[[83.9633,37.3121],[83.5731,37.2379],[81.7068,37.3405],[81.0629,37.5425],[81.001,37.5784],[80.9535,37.625],[80.7947,37.6514],[80.6198,37.6603],[79.572,37.8798],[78.5296,38.3657],[78.4132,38.4547],[78.3388,38.5439],[78.2936,38.6545],[78.2789,38.7643],[78.2915,38.8698],[78.3283,38.9675],[78.3858,39.0541],[78.4606,39.126],[78.5499,39.1799],[78.6503,39.2124],[79.0989,39.2767],[79.2968,39.3356],[79.5173,39.4644],[80.0125,39.8967],[80.1942,40.0128],[80.4138,40.0882],[84.8739,40.5837],[86.7704,40.3854],[87.0839,40.2725],[87.35,40.1081],[87.5471,39.8801],[87.6539,39.5765],[87.6403,39.3117],[87.5222,39.1061],[87.3256,38.9473],[84.3866,37.6365],[84.0342,37.3441],[83.9633,37.3121]]]}}