{"type":"Feature","properties":{"id":"tarbagatay","source":"Natural Earth 10m geography_regions_polys"},"geometry":{"type":"Polygon","coordinates":[[[85.7432,47.2003],[85.7667,47.1389],[85.7766,47.0825],[85.775,47.0288],[85.6936,46.79],[85.637,46.6976],[85.5488,46.6149],[85.3088,46.4816],[85.0357,46.3962],[84.2969,46.348],[84.0432,46.3801],[83.9871,46.3983],[83.9646,46.4116],[83.8945,46.4838],[83.8768,46.5362],[83.8992,46.5884],[84.0991,46.7778],[84.104,46.8158],[84.0617,46.8483],[83.5454,46.987],[83.2556,47.0032],[83.1331,46.9829],[82.9867,46.9114],[82.9264,46.8962],[82.5133,46.9068],[82.3994,46.9347],[82.0755,47.0847],[82.015,47.124],[81.9767,47.1578],[81.7175,47.1305],[81.3864,47.1433],[81.2942,47.1689],[81.1817,47.2029],[80.4851,47.2058],[80.2719,47.2422],[80.1071,47.3218],[79.5213,47.6049],[79.2739,47.7897],[79.0592,48.0587],[79.0281,48.1419],[79.0202,48.2171],[79.0307,48.2853],[79.0547,48.3474],[79.3286,48.7529],[79.3742,48.7946],[79.4277,48.8237],[79.4927,48.838],[81.1619,48.7149],[81.8063,48.5643],[82.7578,48.1105],[83.864,47.5829],[85.4761,47.4239],[85.5636,47.3926],[85.6405,47.3427],[85.7041,47.2693],[85.7432,47.2003]]]}}