{"type":"Feature","properties":{"id":"tianshan","source":"Natural Earth 10m geography_regions_polys"},"geometry":{"type":"Polygon","coordinates":[[[74.3918,42.7053],[73.8519,42.733],[74.5994,42.6907],[74.7466,42.6804],[74.7343,42.6831],[75.0911,42.6629],[75.4158,42.7177],[76.3235,43.2132],[83.4126,43.5551],[83.5795,43.5992],[83.6536,43.6188],[84.3919,43.9629],[85.6756,44.0607],[86.703,44.1389],[87.9912,43.9055],[90.2971,43.8779],[92.1076,44.1749],[94.9287,43.8955],[95.011,43.8741],[95.0807,43.8372],[95.1373,43.7792],[95.1802,43.6948],[95.2086,43.5781],[95.2214,43.2952],[95.1681,43.0629],[95.0576,42.8779],[94.8987,42.7366],[94.6998,42.6362],[94.47,42.573],[93.9517,42.5456],[93.8154,42.5631],[93.6997,42.5961],[93.5092,42.6995],[93.1397,42.9895],[92.9364,43.0926],[92.7261,43.1408],[90.9574,43.1586],[90.7206,43.0949],[90.5671,42.9841],[90.5287,42.8154],[90.0288,42.6856],[89.7805,42.6608],[89.65,42.6723],[88.8588,42.9523],[88.7257,42.9573],[88.6024,42.923],[88.4937,42.8386],[88.4685,42.8032],[88.4525,42.7663],[88.424,42.6151],[88.4116,42.5794],[88.3915,42.5456],[88.3578,42.5104],[87.2804,41.8487],[86.8767,41.7296],[86.5989,41.7125],[84.4883,41.9972],[82.1655,41.6626],[77.1747,39.8857],[74.8532,39.6603],[73.0567,39.7543],[73.0112,39.7689],[72.986,39.7997],[72.9771,39.8533],[72.9901,40.0202],[73.2109,40.6737],[73.3543,41.7954],[73.3405,41.9155],[73.1238,42.4226],[73.1244,42.5065],[73.1984,42.6491],[73.3308,42.7319],[73.5083,42.7674],[74.3918,42.7053]]]}}