{"type":"Feature","properties":{"id":"tsangpo-gorge","source":"Natural Earth 10m geography_regions_polys"},"geometry":{"type":"Polygon","coordinates":[[[95.1464,27.7741],[95.1024,27.7681],[95.0598,27.7686],[94.912,27.801],[94.9087,27.8022],[94.7633,27.8576],[94.7334,27.8995],[94.7041,28.0848],[94.7768,29.4263],[94.7798,29.4806],[94.83,29.5996],[94.8685,29.656],[94.9187,29.7101],[95.1773,29.9105],[95.2119,29.9208],[95.256,29.9207],[95.4738,29.8645],[95.5234,29.833],[95.5569,29.7949],[95.6426,29.5951],[95.6558,29.5643],[95.7142,29.428],[95.7633,29.2272],[95.7831,28.991],[95.7671,28.7671],[95.6544,28.2843],[95.6443,28.2408],[95.5643,28.0368],[95.541,28.0084],[95.2399,27.8064],[95.1464,27.7741]]]}}