{"type":"Feature","properties":{"id":"wuyi","source":"Natural Earth 10m geography_regions_polys"},"geometry":{"type":"Polygon","coordinates":[[[116.9102,25.3684],[116.8615,25.3555],[116.7979,25.3628],[116.3064,25.5541],[116.1592,25.6461],[116.0086,25.7764],[115.8965,25.9105],[115.7798,26.2144],[115.7719,26.2618],[115.7719,26.3082],[115.9137,26.9179],[116.132,27.4408],[116.3534,27.7956],[116.3815,27.8269],[117.1578,28.3984],[117.2435,28.435],[117.4639,28.465],[117.5768,28.4605],[118.2429,28.2857],[118.2793,28.2633],[118.3256,28.1918],[118.3341,28.0944],[118.0271,26.6398],[118.0336,26.5117],[117.8682,25.8244],[117.7444,25.6303],[117.6672,25.5573],[117.5816,25.5082],[116.9102,25.3684]]]}}