{"type":"Feature","properties":{"id":"xiaoxinganling","source":"Natural Earth 10m geography_regions_polys"},"geometry":{"type":"Polygon","coordinates":[[[128.8704,46.4546],[128.767,46.4446],[128.6762,46.4691],[128.5952,46.5207],[128.2061,47.0026],[128.1972,47.0217],[128.192,47.0441],[128.1978,47.1858],[128.193,47.2072],[127.2715,48.5707],[126.9517,48.8524],[126.8313,48.9085],[126.6911,48.941],[126.2854,48.9667],[125.0027,49.3416],[124.7732,49.483],[124.5808,49.6754],[124.5595,49.7105],[124.4392,49.9081],[124.3618,50.1702],[124.4131,50.8638],[124.4198,50.9551],[124.459,51.0449],[124.5203,51.1235],[124.6106,51.1941],[124.6876,51.2544],[125.2667,51.5508],[125.7831,51.6569],[126.0597,51.6562],[126.3278,51.6126],[126.5712,51.5209],[126.7744,51.3758],[126.9215,51.1722],[126.9393,51.1184],[126.9592,50.9643],[127.0725,50.7522],[127.188,50.2932],[127.2291,50.2062],[127.2807,50.1351],[127.7457,49.7815],[127.8344,49.7141],[127.9426,49.6569],[128.7822,49.5729],[130.0779,49.0991],[130.293,48.9462],[130.4403,48.7653],[130.7647,48.1303],[130.8403,47.8778],[130.8496,47.7579],[130.8269,47.6586],[130.7625,47.5922],[130.6465,47.571],[130.8955,47.3807],[130.9252,47.3396],[130.9454,47.2915],[130.9624,47.2135],[130.9607,47.1912],[130.952,47.1758],[130.936,47.1641],[130.7647,47.0864],[130.3053,47.0239],[130.2326,46.9955],[130.069,46.8817],[129.9944,46.8507],[129.9087,46.8353],[129.7354,46.8315],[129.2288,46.6868],[128.9885,46.5064],[128.8704,46.4546]]]}}