{"type":"Feature","properties":{"id":"yangtze-gorges","source":"Natural Earth 10m geography_regions_polys"},"geometry":{"type":"Polygon","coordinates":[[[111.8328,30.3271],[111.7593,30.2423],[111.6238,30.1246],[111.4802,30.0424],[111.3294,29.9913],[111.1723,29.9674],[110.8429,29.9844],[109.7661,30.197],[109.4668,30.1638],[109.3787,30.1814],[109.0319,30.2648],[108.0574,30.2346],[108.0045,30.2427],[107.9312,30.2725],[107.7807,30.3724],[107.5223,30.6367],[107.444,30.7565],[107.4223,30.8188],[107.4126,30.8828],[107.4146,30.9484],[107.4508,31.0836],[107.526,31.2233],[107.6495,31.3837],[107.7835,31.4935],[107.8593,31.5319],[108.038,31.5804],[111.0162,31.7046],[111.376,31.6409],[111.7947,31.4656],[111.8401,31.423],[111.8726,31.3749],[111.8944,31.3218],[111.937,30.6138],[111.918,30.5026],[111.8844,30.4105],[111.8328,30.3271]]]}}