{"type":"Feature","properties":{"id":"yunnan-guizhou","source":"Natural Earth 10m geography_regions_polys"},"geometry":{"type":"Polygon","coordinates":[[[106.2431,24.691],[106.2177,23.8883],[106.1873,23.8159],[106.1172,23.7257],[106.0236,23.6492],[105.7899,23.5323],[104.8845,23.34],[104.4524,23.3339],[104.2234,23.3988],[102.8875,24.0514],[102.5115,23.9467],[102.4052,23.9239],[102.1585,23.9279],[101.4154,24.1194],[100.6025,24.6212],[100.059,24.7244],[100.018,24.7322],[99.7775,24.8239],[99.6643,24.8989],[99.4395,25.1348],[99.105,25.6701],[99.0259,25.7454],[98.4625,26.0957],[98.3074,26.2474],[98.2322,26.346],[98.1275,26.5347],[98.09,26.696],[98.1085,26.8215],[98.1105,26.8352],[98.1795,26.9572],[98.2874,27.0672],[98.9388,27.4816],[98.9829,27.5096],[99.1764,27.5849],[101.777,28.5963],[101.953,28.7234],[102.0222,28.7734],[102.0868,28.805],[102.2238,28.8277],[102.403,28.8573],[102.5383,28.9189],[103.0674,29.2683],[103.2014,29.312],[103.3378,29.3105],[103.4505,29.2785],[103.5297,29.242],[103.5426,29.236],[103.61,29.1809],[103.9697,28.8868],[104.0233,28.7723],[104.138,28.6814],[104.2815,28.6288],[104.4826,28.555],[105.1549,28.4155],[105.4561,28.2736],[106.5668,27.2954],[106.7378,27.1447],[107.0838,26.6589],[107.1729,26.4014],[107.1838,26.1335],[107.0991,25.8547],[106.9017,25.5646],[106.3619,24.974],[106.2914,24.8416],[106.2431,24.691]]]}}