{
  "type": "Feature",
  "properties": {
    "id": "altai"
  },
  "geometry": {
    "type": "Polygon",
    "coordinates": [
      [
        [
          100.5669,
          44.1039
        ],
        [
          100.3294,
          44.0388
        ],
        [
          98.7743,
          43.9847
        ],
        [
          98.26,
          44.064
        ],
        [
          98.0431,
          44.0974
        ],
        [
          97.9701,
          44.0827
        ],
        [
          97.8984,
          44.0515
        ],
        [
          97.8066,
          43.9818
        ],
        [
          97.7682,
          43.9526
        ],
        [
          97.4638,
          43.6212
        ],
        [
          97.3818,
          43.532
        ],
        [
          97.1403,
          43.3635
        ],
        [
          97.0088,
          43.3045
        ],
        [
          96.8709,
          43.2654
        ],
        [
          96.7269,
          43.2488
        ],
        [
          96.5776,
          43.2567
        ],
        [
          96.4236,
          43.2917
        ],
        [
          96.2664,
          43.3677
        ],
        [
          95.3776,
          44.0863
        ],
        [
          95.138,
          44.2801
        ],
        [
          95.0105,
          44.3395
        ],
        [
          94.8749,
          44.3689
        ],
        [
          92.8627,
          44.4113
        ],
        [
          91.9248,
          44.6289
        ],
        [
          91.1151,
          44.6755
        ],
        [
          90.6558,
          44.8797
        ],
        [
          90.075,
          45.4215
        ],
        [
          89.7611,
          46.0023
        ],
        [
          89.6151,
          46.398
        ],
        [
          89.3362,
          46.7969
        ],
        [
          88.9182,
          47.2205
        ],
        [
          88.4003,
          47.5577
        ],
        [
          86.6301,
          48.0971
        ],
        [
          84.3342,
          48.3049
        ],
        [
          84.2284,
          48.4372
        ],
        [
          83.9247,
          48.7503
        ],
        [
          83.3915,
          49.7835
        ],
        [
          83.3029,
          49.9025
        ],
        [
          83.1846,
          50.0117
        ],
        [
          82.9991,
          50.0939
        ],
        [
          82.2545,
          50.4243
        ],
        [
          82.1041,
          50.5205
        ],
        [
          82.0015,
          50.6446
        ],
        [
          81.9432,
          50.7889
        ],
        [
          81.9257,
          50.9458
        ],
        [
          81.9451,
          51.1074
        ],
        [
          81.9981,
          51.2662
        ],
        [
          82.0811,
          51.4143
        ],
        [
          82.5872,
          52.0616
        ],
        [
          82.6766,
          52.1244
        ],
        [
          82.8903,
          52.2177
        ],
        [
          83.3381,
          52.3049
        ],
        [
          84.1262,
          52.2402
        ],
        [
          85.7246,
          52.1091
        ],
        [
          86.7,
          52.0291
        ],
        [
          87.2504,
          51.8426
        ],
        [
          87.7544,
          51.5637
        ],
        [
          88.298,
          51.0969
        ],
        [
          88.4627,
          50.8665
        ],
        [
          88.493,
          50.6914
        ],
        [
          88.5215,
          50.5275
        ],
        [
          88.5707,
          50.244
        ],
        [
          88.7202,
          50.1589
        ],
        [
          89.6531,
          49.6282
        ],
        [
          89.7324,
          49.4461
        ],
        [
          89.7759,
          49.4016
        ],
        [
          89.9019,
          49.3211
        ],
        [
          90.0438,
          49.2689
        ],
        [
          90.8201,
          49.1426
        ],
        [
          90.9547,
          49.0865
        ],
        [
          92.0494,
          48.1035
        ],
        [
          92.2398,
          47.9801
        ],
        [
          92.447,
          47.891
        ],
        [
          92.9624,
          47.7708
        ],
        [
          94.9133,
          46.9121
        ],
        [
          95.6123,
          46.8321
        ],
        [
          97.0446,
          46.1816
        ],
        [
          98.9775,
          45.6801
        ],
        [
          99.8908,
          45.0913
        ],
        [
          100.4407,
          44.855
        ],
        [
          100.5396,
          44.7931
        ],
        [
          100.5635,
          44.7781
        ],
        [
          100.6675,
          44.6844
        ],
        [
          100.7463,
          44.5689
        ],
        [
          100.7514,
          44.5537
        ],
        [
          100.7905,
          44.4373
        ],
        [
          100.7864,
          44.3261
        ],
        [
          100.7424,
          44.2341
        ],
        [
          100.6665,
          44.1605
        ],
        [
          100.5669,
          44.1039
        ]
      ]
    ],
    "totalPoints": 90,
    "numParts": 1
  }
}