{
  "type": "Feature",
  "properties": {
    "id": "inner-mongolia"
  },
  "geometry": {
    "type": "Polygon",
    "coordinates": [
      [
        [
          108.9594,
          50.5288
        ],
        [
          110.2495,
          49.9714
        ],
        [
          110.468,
          49.7985
        ],
        [
          110.5494,
          49.7512
        ],
        [
          110.6028,
          49.738
        ],
        [
          110.6212,
          49.7335
        ],
        [
          110.6453,
          49.735
        ],
        [
          110.6909,
          49.7379
        ],
        [
          111.1063,
          49.8248
        ],
        [
          111.4066,
          49.8027
        ],
        [
          111.9209,
          49.6817
        ],
        [
          112.0581,
          49.681
        ],
        [
          112.3099,
          49.7256
        ],
        [
          112.3772,
          49.7174
        ],
        [
          112.4213,
          49.6912
        ],
        [
          112.4868,
          49.6182
        ],
        [
          112.5317,
          49.588
        ],
        [
          112.6006,
          49.5729
        ],
        [
          112.7706,
          49.5792
        ],
        [
          112.8222,
          49.5525
        ],
        [
          112.9069,
          49.4507
        ],
        [
          112.9336,
          49.4186
        ],
        [
          112.9703,
          49.3876
        ],
        [
          113.0138,
          49.379
        ],
        [
          113.0681,
          49.4025
        ],
        [
          113.1416,
          49.4484
        ],
        [
          113.156,
          49.4486
        ],
        [
          113.2031,
          49.3955
        ],
        [
          113.2456,
          49.3704
        ],
        [
          113.4666,
          49.2993
        ],
        [
          113.9219,
          49.0759
        ],
        [
          114.3174,
          49.0264
        ],
        [
          114.4163,
          48.9693
        ],
        [
          114.4872,
          48.8804
        ],
        [
          114.536,
          48.7649
        ],
        [
          114.7149,
          47.8198
        ],
        [
          114.7411,
          47.7563
        ],
        [
          114.9762,
          47.1882
        ],
        [
          115.1636,
          45.3093
        ],
        [
          115.1361,
          45.1086
        ],
        [
          115.0711,
          44.9254
        ],
        [
          115.1841,
          44.105
        ],
        [
          115.182,
          43.8596
        ],
        [
          115.1305,
          43.6176
        ],
        [
          115.011,
          43.3889
        ],
        [
          114.9409,
          43.3303
        ],
        [
          113.9849,
          42.7785
        ],
        [
          113.9205,
          42.7108
        ],
        [
          113.8029,
          42.6481
        ],
        [
          111.3224,
          42.0018
        ],
        [
          107.6826,
          42.4036
        ],
        [
          106.8313,
          42.289
        ],
        [
          106.6945,
          42.2961
        ],
        [
          106.564,
          42.3265
        ],
        [
          106.4598,
          42.3295
        ],
        [
          105.4744,
          41.989
        ],
        [
          105.2329,
          42.0194
        ],
        [
          103.2905,
          41.8495
        ],
        [
          103.1521,
          41.8719
        ],
        [
          102.8851,
          41.9616
        ],
        [
          99.031,
          42.363
        ],
        [
          97.4082,
          43.0626
        ],
        [
          97.3364,
          43.0865
        ],
        [
          97.3215,
          43.1595
        ],
        [
          97.4638,
          43.6212
        ],
        [
          97.4775,
          43.6659
        ],
        [
          97.4818,
          43.7769
        ],
        [
          97.4368,
          43.854
        ],
        [
          97.4802,
          43.9226
        ],
        [
          97.8066,
          43.9818
        ],
        [
          98.26,
          44.064
        ],
        [
          99.7421,
          44.3328
        ],
        [
          99.781,
          44.3689
        ],
        [
          99.7769,
          44.4057
        ],
        [
          99.9121,
          44.4744
        ],
        [
          100.5396,
          44.7931
        ],
        [
          100.8635,
          44.9576
        ],
        [
          100.9053,
          45.0409
        ],
        [
          100.9229,
          45.126
        ],
        [
          101.0086,
          45.2002
        ],
        [
          101.7837,
          45.4886
        ],
        [
          101.8737,
          45.5456
        ],
        [
          101.9847,
          45.6585
        ],
        [
          102.1231,
          45.7993
        ],
        [
          102.2055,
          45.9388
        ],
        [
          102.2321,
          46.0222
        ],
        [
          102.252,
          46.2009
        ],
        [
          102.2426,
          46.353
        ],
        [
          102.1548,
          46.6398
        ],
        [
          101.9452,
          47.0221
        ],
        [
          101.6643,
          47.2994
        ],
        [
          101.6384,
          47.3474
        ],
        [
          101.6251,
          47.4006
        ],
        [
          101.629,
          47.4482
        ],
        [
          101.6765,
          47.5709
        ],
        [
          101.7923,
          47.749
        ],
        [
          101.8357,
          47.8156
        ],
        [
          101.9258,
          47.9036
        ],
        [
          103.0206,
          48.6409
        ],
        [
          103.2999,
          48.7648
        ],
        [
          103.5087,
          48.8138
        ],
        [
          103.6057,
          48.8193
        ],
        [
          104.4662,
          48.6096
        ],
        [
          104.6475,
          48.6354
        ],
        [
          104.8372,
          48.7398
        ],
        [
          105.5966,
          49.3375
        ],
        [
          105.766,
          49.3805
        ],
        [
          105.9192,
          49.3204
        ],
        [
          105.9736,
          49.334
        ],
        [
          106.3334,
          49.9023
        ],
        [
          106.5195,
          50.1964
        ],
        [
          106.5867,
          50.2271
        ],
        [
          106.6869,
          50.2236
        ],
        [
          106.8063,
          50.2559
        ],
        [
          107.4707,
          50.5664
        ],
        [
          108.6531,
          50.6611
        ],
        [
          108.7561,
          50.6166
        ],
        [
          108.9594,
          50.5288
        ]
      ]
    ],
    "totalPoints": 118,
    "numParts": 1
  }
}