{
  "type": "Feature",
  "properties": {
    "id": "kunlun"
  },
  "geometry": {
    "type": "Polygon",
    "coordinates": [
      [
        [
          86.8008,
          37.625
        ],
        [
          87.5874,
          37.5045
        ],
        [
          89.2188,
          37.5267
        ],
        [
          89.5134,
          37.5307
        ],
        [
          91.1991,
          37.5536
        ],
        [
          91.5309,
          37.4622
        ],
        [
          92.6726,
          36.7617
        ],
        [
          92.7091,
          36.7461
        ],
        [
          92.8597,
          36.6819
        ],
        [
          93.0138,
          36.6162
        ],
        [
          94.1867,
          36.4425
        ],
        [
          94.663,
          36.372
        ],
        [
          94.9949,
          36.3229
        ],
        [
          95.1459,
          36.3005
        ],
        [
          95.1564,
          36.299
        ],
        [
          95.4261,
          36.3711
        ],
        [
          95.6591,
          36.4334
        ],
        [
          95.7616,
          36.4398
        ],
        [
          95.9273,
          36.3967
        ],
        [
          97.5833,
          35.9664
        ],
        [
          97.7879,
          35.9888
        ],
        [
          97.9849,
          36.0103
        ],
        [
          97.9863,
          36.0104
        ],
        [
          98.0181,
          36.0204
        ],
        [
          98.138,
          36.0581
        ],
        [
          98.1514,
          36.0623
        ],
        [
          98.4967,
          36.2528
        ],
        [
          98.5892,
          36.2733
        ],
        [
          98.7981,
          36.2676
        ],
        [
          99.0099,
          36.2131
        ],
        [
          99.1893,
          36.1264
        ],
        [
          99.2584,
          36.0698
        ],
        [
          99.3168,
          35.9984
        ],
        [
          99.4038,
          35.825
        ],
        [
          99.4551,
          35.6342
        ],
        [
          99.4756,
          35.4537
        ],
        [
          99.4717,
          35.3639
        ],
        [
          99.4523,
          35.2867
        ],
        [
          99.4187,
          35.222
        ],
        [
          99.3721,
          35.1697
        ],
        [
          99.3131,
          35.1298
        ],
        [
          99.2432,
          35.1022
        ],
        [
          99.1629,
          35.0867
        ],
        [
          98.9087,
          35.0972
        ],
        [
          97.5928,
          35.3602
        ],
        [
          87.3364,
          35.6878
        ],
        [
          86.7385,
          35.4877
        ],
        [
          82.2907,
          35.3545
        ],
        [
          81.8535,
          35.2293
        ],
        [
          81.3853,
          35.1664
        ],
        [
          80.8251,
          35.1776
        ],
        [
          80.5545,
          35.2264
        ],
        [
          79.2902,
          35.8311
        ],
        [
          79.0858,
          35.8969
        ],
        [
          78.9718,
          35.9162
        ],
        [
          78.668,
          35.9679
        ],
        [
          78.4716,
          36.0362
        ],
        [
          78.281,
          36.1698
        ],
        [
          78.2615,
          36.1912
        ],
        [
          78.0999,
          36.3684
        ],
        [
          78.0292,
          36.4815
        ],
        [
          77.9805,
          36.5986
        ],
        [
          77.9601,
          36.7152
        ],
        [
          77.9746,
          36.8273
        ],
        [
          78.0416,
          36.955
        ],
        [
          78.1438,
          37.0474
        ],
        [
          78.2726,
          37.1097
        ],
        [
          78.5747,
          37.1646
        ],
        [
          79.1597,
          37.132
        ],
        [
          79.7407,
          36.9868
        ],
        [
          80.5231,
          36.6299
        ],
        [
          80.6738,
          36.5612
        ],
        [
          80.7153,
          36.5422
        ],
        [
          80.8428,
          36.5058
        ],
        [
          81.1625,
          36.4143
        ],
        [
          81.208,
          36.4013
        ],
        [
          81.3436,
          36.4099
        ],
        [
          82.135,
          36.6799
        ],
        [
          83.4022,
          36.8169
        ],
        [
          83.4944,
          36.8268
        ],
        [
          83.6707,
          36.888
        ],
        [
          85.7083,
          37.5953
        ],
        [
          86.0426,
          37.7114
        ],
        [
          86.8008,
          37.625
        ]
      ]
    ],
    "totalPoints": 84,
    "numParts": 1
  }
}