{
  "type": "Feature",
  "properties": {
    "id": "qilian"
  },
  "geometry": {
    "type": "Polygon",
    "coordinates": [
      [
        [
          102.9568,
          37.4511
        ],
        [
          102.462,
          36.4397
        ],
        [
          102.3034,
          36.2186
        ],
        [
          102.165,
          36.0766
        ],
        [
          102.0642,
          36.0469
        ],
        [
          102.0255,
          36.0706
        ],
        [
          101.9402,
          36.164
        ],
        [
          101.9149,
          36.1793
        ],
        [
          101.8793,
          36.1884
        ],
        [
          101.1044,
          36.1556
        ],
        [
          100.7898,
          36.2043
        ],
        [
          99.8737,
          36.559
        ],
        [
          99.4653,
          36.8405
        ],
        [
          99.24,
          36.9288
        ],
        [
          98.9927,
          36.9627
        ],
        [
          98.3648,
          36.9197
        ],
        [
          98.2131,
          36.9469
        ],
        [
          98.0822,
          37.0208
        ],
        [
          97.6205,
          37.4603
        ],
        [
          97.4846,
          37.5253
        ],
        [
          96.6731,
          37.5441
        ],
        [
          96.4595,
          37.6072
        ],
        [
          96.3536,
          37.6602
        ],
        [
          96.333,
          37.7224
        ],
        [
          96.2766,
          37.7678
        ],
        [
          95.7914,
          37.8936
        ],
        [
          95.2964,
          38.111
        ],
        [
          95.0883,
          38.2734
        ],
        [
          94.582,
          38.4585
        ],
        [
          94.507,
          38.5209
        ],
        [
          94.4766,
          38.5971
        ],
        [
          94.5064,
          38.6892
        ],
        [
          94.569,
          38.7494
        ],
        [
          94.656,
          38.7853
        ],
        [
          95.2853,
          38.807
        ],
        [
          95.3721,
          38.8328
        ],
        [
          95.4214,
          38.8625
        ],
        [
          95.4381,
          38.8952
        ],
        [
          95.4268,
          38.9305
        ],
        [
          95.3919,
          38.9677
        ],
        [
          95.1934,
          39.0847
        ],
        [
          94.4929,
          39.246
        ],
        [
          94.393,
          39.3082
        ],
        [
          94.3452,
          39.3975
        ],
        [
          94.3665,
          39.5212
        ],
        [
          94.4539,
          39.6725
        ],
        [
          94.5701,
          39.7971
        ],
        [
          94.7085,
          39.8977
        ],
        [
          95.0259,
          40.0375
        ],
        [
          95.6351,
          40.1407
        ],
        [
          95.6564,
          40.1383
        ],
        [
          96.2688,
          40.0681
        ],
        [
          97.4359,
          39.9345
        ],
        [
          98.2973,
          39.8359
        ],
        [
          98.5301,
          39.768
        ],
        [
          99.4271,
          39.5065
        ],
        [
          99.5274,
          39.4772
        ],
        [
          99.6454,
          39.4428
        ],
        [
          99.6972,
          39.4018
        ],
        [
          99.7111,
          39.3909
        ],
        [
          100.8587,
          38.4831
        ],
        [
          101.0133,
          38.3928
        ],
        [
          101.113,
          38.355
        ],
        [
          102.0144,
          38.2653
        ],
        [
          102.2383,
          38.243
        ],
        [
          102.3749,
          38.1921
        ],
        [
          102.4973,
          38.1234
        ],
        [
          102.7067,
          37.9389
        ],
        [
          102.8645,
          37.7086
        ],
        [
          102.9596,
          37.5698
        ],
        [
          102.9568,
          37.4511
        ]
      ]
    ],
    "totalPoints": 71,
    "numParts": 1
  }
}