{
  "type": "Feature",
  "properties": {
    "id": "sichuan"
  },
  "geometry": {
    "type": "Polygon",
    "coordinates": [
      [
        [
          105.2302,
          31.8336
        ],
        [
          105.3361,
          31.8293
        ],
        [
          105.8764,
          31.9373
        ],
        [
          105.9324,
          31.9348
        ],
        [
          105.9873,
          31.9237
        ],
        [
          106.0408,
          31.9019
        ],
        [
          106.2926,
          31.7149
        ],
        [
          106.3396,
          31.6912
        ],
        [
          106.9107,
          31.5816
        ],
        [
          107.0039,
          31.5358
        ],
        [
          107.0756,
          31.4713
        ],
        [
          107.1181,
          31.3838
        ],
        [
          107.0989,
          31.3593
        ],
        [
          107.0868,
          31.3221
        ],
        [
          107.0963,
          30.991
        ],
        [
          107.0072,
          30.6481
        ],
        [
          106.9396,
          30.4968
        ],
        [
          106.9083,
          30.447
        ],
        [
          106.9126,
          30.3894
        ],
        [
          106.9922,
          30.3259
        ],
        [
          107.5947,
          30.0407
        ],
        [
          107.6983,
          29.9687
        ],
        [
          107.7356,
          29.8992
        ],
        [
          107.7313,
          29.8577
        ],
        [
          107.7227,
          29.8252
        ],
        [
          107.7088,
          29.8
        ],
        [
          107.6887,
          29.7806
        ],
        [
          107.6619,
          29.7656
        ],
        [
          106.9734,
          29.5547
        ],
        [
          106.9159,
          29.5372
        ],
        [
          106.6292,
          29.4493
        ],
        [
          106.1673,
          29.0234
        ],
        [
          105.9942,
          28.8637
        ],
        [
          105.9257,
          28.8276
        ],
        [
          105.7678,
          28.8144
        ],
        [
          105.3435,
          28.7791
        ],
        [
          104.332,
          28.6948
        ],
        [
          104.2669,
          28.7109
        ],
        [
          104.1594,
          28.7633
        ],
        [
          103.61,
          29.1809
        ],
        [
          103.5297,
          29.242
        ],
        [
          103.3801,
          29.3557
        ],
        [
          103.3169,
          29.4379
        ],
        [
          103.2755,
          29.5454
        ],
        [
          103.2676,
          30.5183
        ],
        [
          103.334,
          30.6958
        ],
        [
          103.4395,
          30.8513
        ],
        [
          103.5049,
          30.916
        ],
        [
          103.6513,
          31.0242
        ],
        [
          104.1404,
          31.5977
        ],
        [
          104.5473,
          31.943
        ],
        [
          104.7107,
          32.0229
        ],
        [
          104.7843,
          32.0438
        ],
        [
          104.8528,
          32.0523
        ],
        [
          104.9163,
          32.0486
        ],
        [
          104.975,
          32.0331
        ],
        [
          105.0288,
          32.0059
        ],
        [
          105.0523,
          31.9876
        ],
        [
          105.1369,
          31.878
        ],
        [
          105.1581,
          31.8602
        ],
        [
          105.1845,
          31.8462
        ],
        [
          105.2302,
          31.8336
        ]
      ]
    ],
    "totalPoints": 62,
    "numParts": 1
  }
}