{
  "type": "Feature",
  "properties": {
    "id": "tarim-basin"
  },
  "geometry": {
    "type": "Polygon",
    "coordinates": [
      [
        [
          88.1301,
          40.9437
        ],
        [
          88.3959,
          40.8969
        ],
        [
          88.8899,
          40.915
        ],
        [
          89.063,
          40.8848
        ],
        [
          89.6128,
          40.646
        ],
        [
          90.4773,
          40.4156
        ],
        [
          90.6046,
          40.3315
        ],
        [
          90.6973,
          40.2168
        ],
        [
          90.7443,
          40.0648
        ],
        [
          90.7378,
          39.8958
        ],
        [
          90.6826,
          39.753
        ],
        [
          90.5881,
          39.6343
        ],
        [
          90.4646,
          39.5373
        ],
        [
          90.1692,
          39.3991
        ],
        [
          88.7073,
          39.1551
        ],
        [
          87.5805,
          38.5879
        ],
        [
          86.5747,
          38.2984
        ],
        [
          85.4321,
          37.7111
        ],
        [
          84.9236,
          37.5677
        ],
        [
          84.8511,
          37.5299
        ],
        [
          84.7068,
          37.4105
        ],
        [
          83.666,
          36.9725
        ],
        [
          83.2561,
          36.8888
        ],
        [
          82.0476,
          36.842
        ],
        [
          81.3836,
          36.6071
        ],
        [
          81.2343,
          36.5873
        ],
        [
          80.636,
          36.7254
        ],
        [
          80.3003,
          36.9053
        ],
        [
          78.304,
          37.452
        ],
        [
          77.6987,
          37.9098
        ],
        [
          77.1216,
          38.2196
        ],
        [
          77.0802,
          38.2559
        ],
        [
          77.0217,
          38.3395
        ],
        [
          76.936,
          38.5154
        ],
        [
          76.9074,
          38.5539
        ],
        [
          76.811,
          38.6381
        ],
        [
          76.468,
          38.8414
        ],
        [
          76.2505,
          39.0352
        ],
        [
          76.177,
          39.1434
        ],
        [
          76.1369,
          39.2537
        ],
        [
          76.1372,
          39.3622
        ],
        [
          76.1856,
          39.4648
        ],
        [
          76.2893,
          39.5575
        ],
        [
          76.4557,
          39.6364
        ],
        [
          76.6484,
          39.6847
        ],
        [
          77.8421,
          39.7386
        ],
        [
          80.552,
          40.8532
        ],
        [
          81.0757,
          41.205
        ],
        [
          81.4442,
          41.3622
        ],
        [
          86.6101,
          41.6951
        ],
        [
          86.815,
          41.6365
        ],
        [
          87.7848,
          41.0747
        ],
        [
          88.1301,
          40.9437
        ]
      ]
    ],
    "totalPoints": 53,
    "numParts": 1
  }
}